{"type": "FeatureCollection", "features": [ {"type": "Feature", "properties": {"norad_id": 66479, "name": "STARLINK-35581", "group": "last-30-days", "lat": 11.826994986929508, "lon": 130.3626203547125, "alt_km": 404.57731186011824, "timestamp": "2025-12-04T19:33:58.448487+00:00", "meta": {"OBJECT_NAME": "STARLINK-35581", "OBJECT_ID": "2025-262Z", "EPOCH": "2025-12-04T08:00:01.999872", "MEAN_MOTION": 15.55859792, "ECCENTRICITY": 0.00012294, "INCLINATION": 42.9996, "RA_OF_ASC_NODE": 120.2131, "ARG_OF_PERICENTER": 266.101, "MEAN_ANOMALY": 290.9846, "EPHEMERIS_TYPE": 0, "CLASSIFICATION_TYPE": "U", "NORAD_CAT_ID": 66479, "ELEMENT_SET_NO": 999, "REV_AT_EPOCH": 428, "BSTAR": -0.033970335, "MEAN_MOTION_DOT": -0.02142432, "MEAN_MOTION_DDOT": 0}, "tle": {"line1": "1 66479U 25262Z   25338.33335648 -.02142432  00000+0 -33970-1 0  9997", "line2": "2 66479  42.9996 120.2131 0001229 266.1010 290.9846 15.55859792  4281"}}, "geometry": {"type": "Point", "coordinates": [130.3626203547125, 11.826994986929508]}}, {"type": "Feature", "properties": {"norad_id": 66480, "name": "STARLINK-35670", "group": "last-30-days", "lat": 15.611934483593194, "lon": 134.81137739749636, "alt_km": 404.12614382015454, "timestamp": "2025-12-04T19:33:58.448497+00:00", "meta": {"OBJECT_NAME": "STARLINK-35670", "OBJECT_ID": "2025-262AA", "EPOCH": "2025-12-04T08:00:01.999872", "MEAN_MOTION": 15.55858763, "ECCENTRICITY": 0.0001215, "INCLINATION": 42.9996, "RA_OF_ASC_NODE": 120.1985, "ARG_OF_PERICENTER": 263.9008, "MEAN_ANOMALY": 298.9362, "EPHEMERIS_TYPE": 0, "CLASSIFICATION_TYPE": "U", "NORAD_CAT_ID": 66480, "ELEMENT_SET_NO": 999, "REV_AT_EPOCH": 428, "BSTAR": -0.033921813, "MEAN_MOTION_DOT": -0.02139634, "MEAN_MOTION_DDOT": 0}, "tle": {"line1": "1 66480U 25262AA  25338.33335648 -.02139634  00000+0 -33922-1 0  9996", "line2": "2 66480  42.9996 120.1985 0001215 263.9008 298.9362 15.55858763  4284"}}, "geometry": {"type": "Point", "coordinates": [134.81137739749636, 15.611934483593194]}}, {"type": "Feature", "properties": {"norad_id": 66481, "name": "STARLINK-35698", "group": "last-30-days", "lat": 16.853695859329772, "lon": 136.32811076768792, "alt_km": 403.949039853811, "timestamp": "2025-12-04T19:33:58.448508+00:00", "meta": {"OBJECT_NAME": "STARLINK-35698", "OBJECT_ID": "2025-262AB", "EPOCH": "2025-12-04T08:00:01.999872", "MEAN_MOTION": 15.55859009, "ECCENTRICITY": 0.00012477, "INCLINATION": 42.9994, "RA_OF_ASC_NODE": 120.1932, "ARG_OF_PERICENTER": 265.351, "MEAN_ANOMALY": 299.4032, "EPHEMERIS_TYPE": 0, "CLASSIFICATION_TYPE": "U", "NORAD_CAT_ID": 66481, "ELEMENT_SET_NO": 999, "REV_AT_EPOCH": 428, "BSTAR": -0.033951191, "MEAN_MOTION_DOT": -0.02141318, "MEAN_MOTION_DDOT": 0}, "tle": {"line1": "1 66481U 25262AB  25338.33335648 -.02141318  00000+0 -33951-1 0  9991", "line2": "2 66481  42.9994 120.1932 0001247 265.3510 299.4032 15.55859009  4288"}}, "geometry": {"type": "Point", "coordinates": [136.32811076768792, 16.853695859329772]}}, {"type": "Feature", "properties": {"norad_id": 66482, "name": "STARLINK-35648", "group": "last-30-days", "lat": 18.084464761258236, "lon": 137.86606124464714, "alt_km": 403.7515417655004, "timestamp": "2025-12-04T19:33:58.448516+00:00", "meta": {"OBJECT_NAME": "STARLINK-35648", "OBJECT_ID": "2025-262AC", "EPOCH": "2025-12-04T08:00:01.999872", "MEAN_MOTION": 15.5585865, "ECCENTRICITY": 0.00012555, "INCLINATION": 42.9992, "RA_OF_ASC_NODE": 120.1886, "ARG_OF_PERICENTER": 267.1203, "MEAN_ANOMALY": 299.5507, "EPHEMERIS_TYPE": 0, "CLASSIFICATION_TYPE": "U", "NORAD_CAT_ID": 66482, "ELEMENT_SET_NO": 999, "REV_AT_EPOCH": 413, "BSTAR": -0.033942164, "MEAN_MOTION_DOT": -0.02140793, "MEAN_MOTION_DDOT": 0}, "tle": {"line1": "1 66482U 25262AC  25338.33335648 -.02140793  00000+0 -33942-1 0  9998", "line2": "2 66482  42.9992 120.1886 0001255 267.1203 299.5507 15.55858650  4136"}}, "geometry": {"type": "Point", "coordinates": [137.86606124464714, 18.084464761258236]}}, {"type": "Feature", "properties": {"norad_id": 66483, "name": "STARLINK-35654", "group": "last-30-days", "lat": 19.30274411857832, "lon": 139.42412935611094, "alt_km": 403.6486062686854, "timestamp": "2025-12-04T19:33:58.448526+00:00", "meta": {"OBJECT_NAME": "STARLINK-35654", "OBJECT_ID": "2025-262AD", "EPOCH": "2025-12-04T08:00:01.999872", "MEAN_MOTION": 15.55857345, "ECCENTRICITY": 0.00011731, "INCLINATION": 42.9994, "RA_OF_ASC_NODE": 120.1828, "ARG_OF_PERICENTER": 262.4641, "MEAN_ANOMALY": 306.1264, "EPHEMERIS_TYPE": 0, "CLASSIFICATION_TYPE": "U", "NORAD_CAT_ID": 66483, "ELEMENT_SET_NO": 999, "REV_AT_EPOCH": 428, "BSTAR": -0.033923225, "MEAN_MOTION_DOT": -0.02139584, "MEAN_MOTION_DDOT": 0}, "tle": {"line1": "1 66483U 25262AD  25338.33335648 -.02139584  00000+0 -33923-1 0  9994", "line2": "2 66483  42.9994 120.1828 0001173 262.4641 306.1264 15.55857345  4289"}}, "geometry": {"type": "Point", "coordinates": [139.42412935611094, 19.30274411857832]}}, {"type": "Feature", "properties": {"norad_id": 66484, "name": "STARLINK-35371", "group": "last-30-days", "lat": 20.507871210479763, "lon": 141.00847292195007, "alt_km": 403.44723708389665, "timestamp": "2025-12-04T19:33:58.448534+00:00", "meta": {"OBJECT_NAME": "STARLINK-35371", "OBJECT_ID": "2025-262AE", "EPOCH": "2025-12-04T08:00:01.999872", "MEAN_MOTION": 15.55859316, "ECCENTRICITY": 0.00011446, "INCLINATION": 42.9995, "RA_OF_ASC_NODE": 120.1794, "ARG_OF_PERICENTER": 263.5014, "MEAN_ANOMALY": 307.0036, "EPHEMERIS_TYPE": 0, "CLASSIFICATION_TYPE": "U", "NORAD_CAT_ID": 66484, "ELEMENT_SET_NO": 999, "REV_AT_EPOCH": 428, "BSTAR": -0.033929932, "MEAN_MOTION_DOT": -0.02140081, "MEAN_MOTION_DDOT": 0}, "tle": {"line1": "1 66484U 25262AE  25338.33335648 -.02140081  00000+0 -33930-1 0  9997", "line2": "2 66484  42.9995 120.1794 0001144 263.5014 307.0036 15.55859316  4284"}}, "geometry": {"type": "Point", "coordinates": [141.00847292195007, 20.507871210479763]}}, {"type": "Feature", "properties": {"norad_id": 66485, "name": "STARLINK-34774", "group": "last-30-days", "lat": 0.007161514563895475, "lon": -8.26389792320978, "alt_km": 370.84115349936474, "timestamp": "2025-12-04T19:33:58.448543+00:00", "meta": {"OBJECT_NAME": "STARLINK-34774", "OBJECT_ID": "2025-263A", "EPOCH": "2025-12-04T08:00:01.999872", "MEAN_MOTION": 15.67830112, "ECCENTRICITY": 0.0001706, "INCLINATION": 42.9992, "RA_OF_ASC_NODE": 174.6324, "ARG_OF_PERICENTER": 266.0273, "MEAN_ANOMALY": 72.4563, "EPHEMERIS_TYPE": 0, "CLASSIFICATION_TYPE": "U", "NORAD_CAT_ID": 66485, "ELEMENT_SET_NO": 999, "REV_AT_EPOCH": 428, "BSTAR": -0.019747044, "MEAN_MOTION_DOT": -0.01973634, "MEAN_MOTION_DDOT": 0}, "tle": {"line1": "1 66485U 25263A   25338.33335648 -.01973634  00000+0 -19747-1 0  9996", "line2": "2 66485  42.9992 174.6324 0001706 266.0273  72.4563 15.67830112  4288"}}, "geometry": {"type": "Point", "coordinates": [-8.26389792320978, 0.007161514563895475]}}, {"type": "Feature", "properties": {"norad_id": 66486, "name": "STARLINK-34844", "group": "last-30-days", "lat": -1.299421947247205, "lon": -6.867148867340043, "alt_km": 370.91465863185203, "timestamp": "2025-12-04T19:33:58.448553+00:00", "meta": {"OBJECT_NAME": "STARLINK-34844", "OBJECT_ID": "2025-263B", "EPOCH": "2025-12-04T08:00:01.999872", "MEAN_MOTION": 15.67844649, "ECCENTRICITY": 0.00016831, "INCLINATION": 42.9994, "RA_OF_ASC_NODE": 174.6266, "ARG_OF_PERICENTER": 264.0721, "MEAN_ANOMALY": 76.3178, "EPHEMERIS_TYPE": 0, "CLASSIFICATION_TYPE": "U", "NORAD_CAT_ID": 66486, "ELEMENT_SET_NO": 999, "REV_AT_EPOCH": 423, "BSTAR": -0.019906092, "MEAN_MOTION_DOT": -0.01988661, "MEAN_MOTION_DDOT": 0}, "tle": {"line1": "1 66486U 25263B   25338.33335648 -.01988661  00000+0 -19906-1 0  9990", "line2": "2 66486  42.9994 174.6266 0001683 264.0721  76.3178 15.67844649  4236"}}, "geometry": {"type": "Point", "coordinates": [-6.867148867340043, -1.299421947247205]}}, {"type": "Feature", "properties": {"norad_id": 66487, "name": "STARLINK-34733", "group": "last-30-days", "lat": -2.605309923671093, "lon": -5.467042400674752, "alt_km": 371.07549126453796, "timestamp": "2025-12-04T19:33:58.448562+00:00", "meta": {"OBJECT_NAME": "STARLINK-34733", "OBJECT_ID": "2025-263C", "EPOCH": "2025-12-04T08:00:01.999872", "MEAN_MOTION": 15.67845381, "ECCENTRICITY": 0.00016968, "INCLINATION": 42.9993, "RA_OF_ASC_NODE": 174.6226, "ARG_OF_PERICENTER": 265.643, "MEAN_ANOMALY": 76.663, "EPHEMERIS_TYPE": 0, "CLASSIFICATION_TYPE": "U", "NORAD_CAT_ID": 66487, "ELEMENT_SET_NO": 999, "REV_AT_EPOCH": 428, "BSTAR": -0.019909741, "MEAN_MOTION_DOT": -0.01989046, "MEAN_MOTION_DDOT": 0}, "tle": {"line1": "1 66487U 25263C   25338.33335648 -.01989046  00000+0 -19910-1 0  9994", "line2": "2 66487  42.9993 174.6226 0001696 265.6430  76.6630 15.67845381  4285"}}, "geometry": {"type": "Point", "coordinates": [-5.467042400674752, -2.605309923671093]}}, {"type": "Feature", "properties": {"norad_id": 66488, "name": "STARLINK-35515", "group": "last-30-days", "lat": -3.909958315577417, "lon": -4.064765487528928, "alt_km": 371.25098645566413, "timestamp": "2025-12-04T19:33:58.448572+00:00", "meta": {"OBJECT_NAME": "STARLINK-35515", "OBJECT_ID": "2025-263D", "EPOCH": "2025-12-04T08:00:01.999872", "MEAN_MOTION": 15.67843824, "ECCENTRICITY": 0.00016631, "INCLINATION": 42.9993, "RA_OF_ASC_NODE": 174.6175, "ARG_OF_PERICENTER": 267.7786, "MEAN_ANOMALY": 76.4454, "EPHEMERIS_TYPE": 0, "CLASSIFICATION_TYPE": "U", "NORAD_CAT_ID": 66488, "ELEMENT_SET_NO": 999, "REV_AT_EPOCH": 428, "BSTAR": -0.019891724, "MEAN_MOTION_DOT": -0.01987322, "MEAN_MOTION_DDOT": 0}, "tle": {"line1": "1 66488U 25263D   25338.33335648 -.01987322  00000+0 -19892-1 0  9999", "line2": "2 66488  42.9993 174.6175 0001663 267.7786  76.4454 15.67843824  4282"}}, "geometry": {"type": "Point", "coordinates": [-4.064765487528928, -3.909958315577417]}}]}